THURAYA-3               
1 32404U 08001A   26087.84943138 -.00000317  00000+0  00000+0 0  9995
2 32404   5.8558  35.6558 0002353 320.3572 234.5066  1.00274023 66684
